[{"OBJECT_NAME":"STARLINK-5649","OBJECT_ID":"2023-013Z","EPOCH":"2026-03-09T00:56:02.592960","MEAN_MOTION":15.02538469,"ECCENTRICITY":0.00013965,"INCLINATION":43.0046,"RA_OF_ASC_NODE":303.6873,"ARG_OF_PERICENTER":266.6859,"MEAN_ANOMALY":93.3824,"EPHEMERIS_TYPE":0,"CLASSIFICATION_TYPE":"U","NORAD_CAT_ID":55354,"ELEMENT_SET_NO":999,"REV_AT_EPOCH":17161,"BSTAR":5.906213e-5,"MEAN_MOTION_DOT":5.94e-6,"MEAN_MOTION_DDOT":0},{"OBJECT_NAME":"UNKNOWN","OBJECT_ID":"","EPOCH":"2026-02-26T02:14:50.940960","MEAN_MOTION":13.22662933,"ECCENTRICITY":0.0835036,"INCLINATION":65.8188,"RA_OF_ASC_NODE":317.7488,"ARG_OF_PERICENTER":355.8421,"MEAN_ANOMALY":3.5955,"EPHEMERIS_TYPE":0,"CLASSIFICATION_TYPE":"U","NORAD_CAT_ID":81329,"ELEMENT_SET_NO":999,"REV_AT_EPOCH":58804,"BSTAR":0.0009612,"MEAN_MOTION_DOT":2.7e-5,"MEAN_MOTION_DDOT":0}]
